STARLINK-31081          
1 58632U 23203Q   26068.05330521 -.00001326  00000+0 -38670-4 0  9996
2 58632  43.0042  74.1567 0001210 279.3892  80.6822 15.27566603124658
FLOCK 4G-36             
1 62675U 25009BU  26068.70726311  .00013573  00000+0  51122-3 0  9993
2 62675  97.4053 151.0513 0003474 324.2456  35.8550 15.27209548 63701
